start=new Date('2022-05-21T00:00:00.000Z').valueOf();
sats=[{"EPHEMERIS_TYPE":"0","RA_OF_ASC_NODE":"197.7611","CLASSIFICATION_TYPE":"U","LAUNCH_DATE":"2021-04-29","RCS_SIZE":"LARGE","MEAN_MOTION_DDOT":"0.0000000000000","TIME_SYSTEM":"UTC","ECCENTRICITY":"0.00015130","OBJECT_NAME":"STARLINK-2562","TLE_LINE1":"1 48288U 21036N   22140.54123271  .00007201  00000-0  50174-3 0  9996","TLE_LINE2":"2 48288  53.0521 197.7611 0001513  52.3589 307.7537 15.06405228 59517","GP_ID":"204045028","OBJECT_ID":"2021-036N","NORAD_CAT_ID":"48288","COUNTRY_CODE":"US","OBJECT_TYPE":"PAYLOAD","REV_AT_EPOCH":"5951","SEMIMAJOR_AXIS":"6925.333","APOAPSIS":"548.245","MEAN_ELEMENT_THEORY":"SGP4","ARG_OF_PERICENTER":"52.3589","CENTER_NAME":"EARTH","REF_FRAME":"TEME","INCLINATION":"53.0521","FILE":"3455275","ELEMENT_SET_NO":"999","SITE":"AFETR","PERIOD":"95.592","DECAY_DATE":null,"MEAN_ANOMALY":"307.7537","MEAN_MOTION_DOT":"0.00007201","PERIAPSIS":"546.150","BSTAR":"0.00050174000000","MEAN_MOTION":"15.06405228","EPOCH":"2022-05-20T12:59:22.506144"},{"EPOCH":"2022-05-20T12:54:02.557440","MEAN_MOTION":"15.06427342","BSTAR":"0.00035825000000","MEAN_MOTION_DOT":"0.00005062","PERIAPSIS":"545.916","MEAN_ANOMALY":"311.2625","DECAY_DATE":null,"SITE":"AFETR","PERIOD":"95.590","ELEMENT_SET_NO":"999","REF_FRAME":"TEME","INCLINATION":"53.0548","FILE":"3455275","ARG_OF_PERICENTER":"48.8515","CENTER_NAME":"EARTH","APOAPSIS":"548.344","MEAN_ELEMENT_THEORY":"SGP4","SEMIMAJOR_AXIS":"6925.265","REV_AT_EPOCH":"5951","GP_ID":"204045029","OBJECT_ID":"2021-036P","NORAD_CAT_ID":"48289","OBJECT_TYPE":"PAYLOAD","COUNTRY_CODE":"US","TLE_LINE1":"1 48289U 21036P   22140.53752960  .00005062  00000-0  35825-3 0  9998","TLE_LINE2":"2 48289  53.0548 197.7576 0001753  48.8515 311.2625 15.06427342 59511","OBJECT_NAME":"STARLINK-2545","ECCENTRICITY":"0.00017530","TIME_SYSTEM":"UTC","MEAN_MOTION_DDOT":"0.0000000000000","RCS_SIZE":"LARGE","RA_OF_ASC_NODE":"197.7576","CLASSIFICATION_TYPE":"U","LAUNCH_DATE":"2021-04-29","EPHEMERIS_TYPE":"0"},{"BSTAR":"0.00015881000000","MEAN_ANOMALY":"311.5309","MEAN_MOTION_DOT":"0.00002085","PERIAPSIS":"545.991","EPOCH":"2022-05-20T09:37:40.920384","MEAN_MOTION":"15.06405386","ELEMENT_SET_NO":"999","CENTER_NAME":"EARTH","ARG_OF_PERICENTER":"48.5830","REF_FRAME":"TEME","INCLINATION":"53.0528","FILE":"3455160","SITE":"AFETR","PERIOD":"95.592","DECAY_DATE":null,"TLE_LINE1":"1 48290U 21036Q   22140.40116806  .00002085  00000-0  15881-3 0  9991","TLE_LINE2":"2 48290  53.0528 198.3869 0001742  48.5830 311.5309 15.06405386 58917","OBJECT_NAME":"STARLINK-2540","APOAPSIS":"548.403","MEAN_ELEMENT_THEORY":"SGP4","GP_ID":"204040056","OBJECT_ID":"2021-036Q","NORAD_CAT_ID":"48290","OBJECT_TYPE":"PAYLOAD","COUNTRY_CODE":"US","REV_AT_EPOCH":"5891","SEMIMAJOR_AXIS":"6925.332","RCS_SIZE":"LARGE","EPHEMERIS_TYPE":"0","RA_OF_ASC_NODE":"198.3869","LAUNCH_DATE":"2021-04-29","CLASSIFICATION_TYPE":"U","ECCENTRICITY":"0.00017420","MEAN_MOTION_DDOT":"0.0000000000000","TIME_SYSTEM":"UTC"},{"PERIOD":"95.592","SITE":"AFETR","DECAY_DATE":null,"ARG_OF_PERICENTER":"36.3241","CENTER_NAME":"EARTH","FILE":"3455160","REF_FRAME":"TEME","INCLINATION":"53.0530","ELEMENT_SET_NO":"999","MEAN_MOTION":"15.06397069","EPOCH":"2022-05-20T11:07:55.476192","MEAN_ANOMALY":"323.7898","PERIAPSIS":"545.686","MEAN_MOTION_DOT":"-0.00000011","BSTAR":"0.00001816900000","MEAN_MOTION_DDOT":"0.0000000000000","TIME_SYSTEM":"UTC","ECCENTRICITY":"0.00022190","EPHEMERIS_TYPE":"0","CLASSIFICATION_TYPE":"U","LAUNCH_DATE":"2021-04-29","RA_OF_ASC_NODE":"198.1012","RCS_SIZE":"LARGE","OBJECT_TYPE":"PAYLOAD","COUNTRY_CODE":"US","GP_ID":"204040808","NORAD_CAT_ID":"48291","OBJECT_ID":"2021-036R","SEMIMAJOR_AXIS":"6925.358","REV_AT_EPOCH":"5892","MEAN_ELEMENT_THEORY":"SGP4","APOAPSIS":"548.759","OBJECT_NAME":"STARLINK-2555","TLE_LINE2":"2 48291  53.0530 198.1012 0002219  36.3241 323.7898 15.06397069 58927","TLE_LINE1":"1 48291U 21036R   22140.46383653 -.00000011  00000-0  18169-4 0  9995"},{"APOAPSIS":"548.348","MEAN_ELEMENT_THEORY":"SGP4","SEMIMAJOR_AXIS":"6925.336","REV_AT_EPOCH":"5892","GP_ID":"204041533","OBJECT_ID":"2021-036S","NORAD_CAT_ID":"48292","COUNTRY_CODE":"US","OBJECT_TYPE":"PAYLOAD","TLE_LINE1":"1 48292U 21036S   22140.45919816  .00002546  00000-0  18973-3 0  9997","TLE_LINE2":"2 48292  53.0540 198.1295 0001656  52.0940 308.0199 15.06403966 58921","OBJECT_NAME":"STARLINK-2542","ECCENTRICITY":"0.00016560","TIME_SYSTEM":"UTC","MEAN_MOTION_DDOT":"0.0000000000000","RCS_SIZE":"LARGE","RA_OF_ASC_NODE":"198.1295","CLASSIFICATION_TYPE":"U","LAUNCH_DATE":"2021-04-29","EPHEMERIS_TYPE":"0","EPOCH":"2022-05-20T11:01:14.721024","MEAN_MOTION":"15.06403966","BSTAR":"0.00018973000000","MEAN_MOTION_DOT":"0.00002546","PERIAPSIS":"546.055","MEAN_ANOMALY":"308.0199","DECAY_DATE":null,"SITE":"AFETR","PERIOD":"95.592","ELEMENT_SET_NO":"999","REF_FRAME":"TEME","INCLINATION":"53.0540","FILE":"3455160","CENTER_NAME":"EARTH","ARG_OF_PERICENTER":"52.0940"},{"OBJECT_NAME":"STARLINK-2550","TLE_LINE1":"1 48293U 21036T   22140.45645606  .00001934  00000-0  14870-3 0  9993","TLE_LINE2":"2 48293  53.0552 198.1376 0001853  48.7618 311.3530 15.06406347 58920","NORAD_CAT_ID":"48293","GP_ID":"204040306","OBJECT_ID":"2021-036T","COUNTRY_CODE":"US","OBJECT_TYPE":"PAYLOAD","SEMIMAJOR_AXIS":"6925.329","REV_AT_EPOCH":"5892","APOAPSIS":"548.477","MEAN_ELEMENT_THEORY":"SGP4","EPHEMERIS_TYPE":"0","RA_OF_ASC_NODE":"198.1376","CLASSIFICATION_TYPE":"U","LAUNCH_DATE":"2021-04-29","RCS_SIZE":"LARGE","TIME_SYSTEM":"UTC","MEAN_MOTION_DDOT":"0.0000000000000","ECCENTRICITY":"0.00018530","MEAN_ANOMALY":"311.3530","MEAN_MOTION_DOT":"0.00001934","PERIAPSIS":"545.911","BSTAR":"0.00014870000000","MEAN_MOTION":"15.06406347","EPOCH":"2022-05-20T10:57:17.803584","ARG_OF_PERICENTER":"48.7618","CENTER_NAME":"EARTH","INCLINATION":"53.0552","REF_FRAME":"TEME","FILE":"3455160","ELEMENT_SET_NO":"999","SITE":"AFETR","PERIOD":"95.592","DECAY_DATE":null},{"RCS_SIZE":"LARGE","EPHEMERIS_TYPE":"0","RA_OF_ASC_NODE":"198.1511","LAUNCH_DATE":"2021-04-29","CLASSIFICATION_TYPE":"U","ECCENTRICITY":"0.00015390","TIME_SYSTEM":"UTC","MEAN_MOTION_DDOT":"0.0000000000000","TLE_LINE1":"1 48294U 21036U   22140.45277909 -.00001533  00000-0 -84064-4 0  9991","TLE_LINE2":"2 48294  53.0542 198.1511 0001539  51.3731 308.7395 15.06396916 58927","OBJECT_NAME":"STARLINK-2533","APOAPSIS":"548.289","MEAN_ELEMENT_THEORY":"SGP4","OBJECT_ID":"2021-036U","GP_ID":"204040556","NORAD_CAT_ID":"48294","COUNTRY_CODE":"US","OBJECT_TYPE":"PAYLOAD","SEMIMAJOR_AXIS":"6925.358","REV_AT_EPOCH":"5892","ELEMENT_SET_NO":"999","ARG_OF_PERICENTER":"51.3731","CENTER_NAME":"EARTH","REF_FRAME":"TEME","INCLINATION":"53.0542","FILE":"3455160","SITE":"AFETR","PERIOD":"95.592","DECAY_DATE":null,"BSTAR":"-0.00008406400000","MEAN_ANOMALY":"308.7395","MEAN_MOTION_DOT":"-0.00001533","PERIAPSIS":"546.157","EPOCH":"2022-05-20T10:52:00.113376","MEAN_MOTION":"15.06396916"},{"MEAN_MOTION":"15.06397859","EPOCH":"2022-05-20T10:46:41.145312","MEAN_ANOMALY":"301.2998","MEAN_MOTION_DOT":"0.00000173","PERIAPSIS":"546.138","BSTAR":"0.00003048500000","SITE":"AFETR","PERIOD":"95.592","DECAY_DATE":null,"CENTER_NAME":"EARTH","ARG_OF_PERICENTER":"58.8144","INCLINATION":"53.0555","REF_FRAME":"TEME","FILE":"3455160","ELEMENT_SET_NO":"999","OBJECT_ID":"2021-036V","GP_ID":"204041307","NORAD_CAT_ID":"48295","OBJECT_TYPE":"PAYLOAD","COUNTRY_CODE":"US","SEMIMAJOR_AXIS":"6925.355","REV_AT_EPOCH":"5892","APOAPSIS":"548.303","MEAN_ELEMENT_THEORY":"SGP4","OBJECT_NAME":"STARLINK-2535","TLE_LINE1":"1 48295U 21036V   22140.44908733  .00000173  00000-0  30485-4 0  9992","TLE_LINE2":"2 48295  53.0555 198.1559 0001563  58.8144 301.2998 15.06397859 58925","MEAN_MOTION_DDOT":"0.0000000000000","TIME_SYSTEM":"UTC","ECCENTRICITY":"0.00015630","EPHEMERIS_TYPE":"0","RA_OF_ASC_NODE":"198.1559","CLASSIFICATION_TYPE":"U","LAUNCH_DATE":"2021-04-29","RCS_SIZE":"LARGE"},{"SEMIMAJOR_AXIS":"6925.379","REV_AT_EPOCH":"5953","COUNTRY_CODE":"US","OBJECT_TYPE":"PAYLOAD","GP_ID":"204045520","NORAD_CAT_ID":"48296","OBJECT_ID":"2021-036W","MEAN_ELEMENT_THEORY":"SGP4","APOAPSIS":"548.452","OBJECT_NAME":"STARLINK-2546","TLE_LINE2":"2 48296  53.0540 197.2896 0001745  62.8136 297.3030 15.06390185 59537","TLE_LINE1":"1 48296U 21036W   22140.64444764  .00000124  00000-0  27228-4 0  9991","TIME_SYSTEM":"UTC","MEAN_MOTION_DDOT":"0.0000000000000","ECCENTRICITY":"0.00017450","CLASSIFICATION_TYPE":"U","LAUNCH_DATE":"2021-04-29","RA_OF_ASC_NODE":"197.2896","EPHEMERIS_TYPE":"0","RCS_SIZE":"LARGE","MEAN_MOTION":"15.06390185","EPOCH":"2022-05-20T15:28:00.276096","PERIAPSIS":"546.035","MEAN_MOTION_DOT":"0.00000124","MEAN_ANOMALY":"297.3030","BSTAR":"0.00002722800000","DECAY_DATE":null,"PERIOD":"95.593","SITE":"AFETR","FILE":"3455315","REF_FRAME":"TEME","INCLINATION":"53.0540","CENTER_NAME":"EARTH","ARG_OF_PERICENTER":"62.8136","ELEMENT_SET_NO":"999"},{"OBJECT_NAME":"STARLINK-2544","TLE_LINE2":"2 48297  53.0549 197.8960 0002069  40.9768 319.1376 15.06407748 58936","TLE_LINE1":"1 48297U 21036X   22140.50805765  .00001188  00000-0  98640-4 0  9996","COUNTRY_CODE":"US","OBJECT_TYPE":"PAYLOAD","GP_ID":"204039807","OBJECT_ID":"2021-036X","NORAD_CAT_ID":"48297","REV_AT_EPOCH":"5893","SEMIMAJOR_AXIS":"6925.325","MEAN_ELEMENT_THEORY":"SGP4","APOAPSIS":"548.623","EPHEMERIS_TYPE":"0","LAUNCH_DATE":"2021-04-29","CLASSIFICATION_TYPE":"U","RA_OF_ASC_NODE":"197.8960","RCS_SIZE":"LARGE","TIME_SYSTEM":"UTC","MEAN_MOTION_DDOT":"0.0000000000000","ECCENTRICITY":"0.00020690","MEAN_ANOMALY":"319.1376","PERIAPSIS":"545.757","MEAN_MOTION_DOT":"0.00001188","BSTAR":"0.00009864000000","MEAN_MOTION":"15.06407748","EPOCH":"2022-05-20T12:11:36.180960","ARG_OF_PERICENTER":"40.9768","CENTER_NAME":"EARTH","FILE":"3455160","REF_FRAME":"TEME","INCLINATION":"53.0549","ELEMENT_SET_NO":"999","PERIOD":"95.592","SITE":"AFETR","DECAY_DATE":null}];
